{
  "type": "FeatureCollection",
  "features": [
    {
      "type": "Feature",
      "properties": {
        "norad_id": 66842,
        "name": "STARLINK-35769",
        "group": "last-30-days",
        "lat": 28.455247950294694,
        "lon": -24.302342968299183,
        "alt_km": 408.60119537311675,
        "timestamp": "2025-12-24T03:53:28.362453+00:00",
        "meta_object_name": "STARLINK-35769",
        "meta_object_id": "2025-280X",
        "meta_epoch": "2025-12-23T17:58:19.674048",
        "meta_mean_motion": 15.52566761,
        "meta_eccentricity": 0.0003042,
        "meta_inclination": 70.0006,
        "meta_ra_of_asc_node": 168.2135,
        "meta_arg_of_pericenter": 283.0607,
        "meta_mean_anomaly": 77.024,
        "meta_ephemeris_type": 0,
        "meta_classification_type": "U",
        "meta_norad_cat_id": 66842,
        "meta_element_set_no": 999,
        "meta_rev_at_epoch": 464,
        "meta_bstar": 0.0015365,
        "meta_mean_motion_dot": 0.00095668,
        "meta_mean_motion_ddot": 0,
        "tle_line1": "1 66842U 25280X   25357.74883882  .00095668  00000+0  15365-2 0  9998",
        "tle_line2": "2 66842  70.0006 168.2135 0003042 283.0607  77.0240 15.52566761  4640"
      },
      "geometry": {
        "type": "Point",
        "coordinates": [
          -24.302342968299183,
          28.455247950294694
        ]
      }
    },
    {
      "type": "Feature",
      "properties": {
        "norad_id": 66843,
        "name": "STARLINK-35997",
        "group": "last-30-days",
        "lat": 24.991952140080823,
        "lon": -22.6981745416387,
        "alt_km": 408.9994269345598,
        "timestamp": "2025-12-24T03:53:28.362465+00:00",
        "meta_object_name": "STARLINK-35997",
        "meta_object_id": "2025-280Y",
        "meta_epoch": "2025-12-23T17:57:20.543616",
        "meta_mean_motion": 15.52538829,
        "meta_eccentricity": 0.0003446,
        "meta_inclination": 70.0009,
        "meta_ra_of_asc_node": 168.2099,
        "meta_arg_of_pericenter": 271.3397,
        "meta_mean_anomaly": 88.7395,
        "meta_ephemeris_type": 0,
        "meta_classification_type": "U",
        "meta_norad_cat_id": 66843,
        "meta_element_set_no": 999,
        "meta_rev_at_epoch": 464,
        "meta_bstar": 0.00095617,
        "meta_mean_motion_dot": 0.00059139,
        "meta_mean_motion_ddot": 0,
        "tle_line1": "1 66843U 25280Y   25357.74815444  .00059139  00000+0  95617-3 0  9990",
        "tle_line2": "2 66843  70.0009 168.2099 0003446 271.3397  88.7395 15.52538829  4641"
      },
      "geometry": {
        "type": "Point",
        "coordinates": [
          -22.6981745416387,
          24.991952140080823
        ]
      }
    },
    {
      "type": "Feature",
      "properties": {
        "norad_id": 66844,
        "name": "STARLINK-36073",
        "group": "last-30-days",
        "lat": 26.76366284783269,
        "lon": -23.50512424268144,
        "alt_km": 408.8638037217015,
        "timestamp": "2025-12-24T03:53:28.362487+00:00",
        "meta_object_name": "STARLINK-36073",
        "meta_object_id": "2025-280Z",
        "meta_epoch": "2025-12-23T17:57:50.247072",
        "meta_mean_motion": 15.52539278,
        "meta_eccentricity": 0.0003497,
        "meta_inclination": 70.0006,
        "meta_ra_of_asc_node": 168.2122,
        "meta_arg_of_pericenter": 273.8564,
        "meta_mean_anomaly": 86.2223,
        "meta_ephemeris_type": 0,
        "meta_classification_type": "U",
        "meta_norad_cat_id": 66844,
        "meta_element_set_no": 999,
        "meta_rev_at_epoch": 461,
        "meta_bstar": 0.0011162,
        "meta_mean_motion_dot": 0.00069154,
        "meta_mean_motion_ddot": 0,
        "tle_line1": "1 66844U 25280Z   25357.74849823  .00069154  00000+0  11162-2 0  9999",
        "tle_line2": "2 66844  70.0006 168.2122 0003497 273.8564  86.2223 15.52539278  4614"
      },
      "geometry": {
        "type": "Point",
        "coordinates": [
          -23.50512424268144,
          26.76366284783269
        ]
      }
    },
    {
      "type": "Feature",
      "properties": {
        "norad_id": 66845,
        "name": "STARLINK-36068",
        "group": "last-30-days",
        "lat": 19.622847095689675,
        "lon": -20.391697863358335,
        "alt_km": 409.5667792461518,
        "timestamp": "2025-12-24T03:53:28.362497+00:00",
        "meta_object_name": "STARLINK-36068",
        "meta_object_id": "2025-280AA",
        "meta_epoch": "2025-12-23T17:55:51.649248",
        "meta_mean_motion": 15.52545325,
        "meta_eccentricity": 0.0003279,
        "meta_inclination": 70.0008,
        "meta_ra_of_asc_node": 168.2058,
        "meta_arg_of_pericenter": 272.2267,
        "meta_mean_anomaly": 87.8545,
        "meta_ephemeris_type": 0,
        "meta_classification_type": "U",
        "meta_norad_cat_id": 66845,
        "meta_element_set_no": 999,
        "meta_rev_at_epoch": 464,
        "meta_bstar": 0.0012936,
        "meta_mean_motion_dot": 0.00080298,
        "meta_mean_motion_ddot": 0,
        "tle_line1": "1 66845U 25280AA  25357.74712557  .00080298  00000+0  12936-2 0  9995",
        "tle_line2": "2 66845  70.0008 168.2058 0003279 272.2267  87.8545 15.52545325  4643"
      },
      "geometry": {
        "type": "Point",
        "coordinates": [
          -20.391697863358335,
          19.622847095689675
        ]
      }
    },
    {
      "type": "Feature",
      "properties": {
        "norad_id": 66846,
        "name": "STARLINK-36055",
        "group": "last-30-days",
        "lat": 23.180710432784064,
        "lon": -21.89827654264923,
        "alt_km": 409.09515814714086,
        "timestamp": "2025-12-24T03:53:28.362507+00:00",
        "meta_object_name": "STARLINK-36055",
        "meta_object_id": "2025-280AB",
        "meta_epoch": "2025-12-23T17:56:50.828064",
        "meta_mean_motion": 15.52549135,
        "meta_eccentricity": 0.0003279,
        "meta_inclination": 70.0006,
        "meta_ra_of_asc_node": 168.2086,
        "meta_arg_of_pericenter": 271.2889,
        "meta_mean_anomaly": 88.7922,
        "meta_ephemeris_type": 0,
        "meta_classification_type": "U",
        "meta_norad_cat_id": 66846,
        "meta_element_set_no": 999,
        "meta_rev_at_epoch": 464,
        "meta_bstar": 0.0012586,
        "meta_mean_motion_dot": 0.00078113,
        "meta_mean_motion_ddot": 0,
        "tle_line1": "1 66846U 25280AB  25357.74781051  .00078113  00000+0  12586-2 0  9995",
        "tle_line2": "2 66846  70.0006 168.2086 0003279 271.2889  88.7922 15.52549135  4644"
      },
      "geometry": {
        "type": "Point",
        "coordinates": [
          -21.89827654264923,
          23.180710432784064
        ]
      }
    },
    {
      "type": "Feature",
      "properties": {
        "norad_id": 66847,
        "name": "STARLINK-36061",
        "group": "last-30-days",
        "lat": 21.386240527214653,
        "lon": -21.12778627768061,
        "alt_km": 409.30595420624013,
        "timestamp": "2025-12-24T03:53:28.362517+00:00",
        "meta_object_name": "STARLINK-36061",
        "meta_object_id": "2025-280AC",
        "meta_epoch": "2025-12-23T17:56:21.122016",
        "meta_mean_motion": 15.52565219,
        "meta_eccentricity": 0.0003229,
        "meta_inclination": 70.0007,
        "meta_ra_of_asc_node": 168.2079,
        "meta_arg_of_pericenter": 271.0031,
        "meta_mean_anomaly": 89.0786,
        "meta_ephemeris_type": 0,
        "meta_classification_type": "U",
        "meta_norad_cat_id": 66847,
        "meta_element_set_no": 999,
        "meta_rev_at_epoch": 464,
        "meta_bstar": 0.00083425,
        "meta_mean_motion_dot": 0.00051575,
        "meta_mean_motion_ddot": 0,
        "tle_line1": "1 66847U 25280AC  25357.74746669  .00051575  00000+0  83425-3 0  9996",
        "tle_line2": "2 66847  70.0007 168.2079 0003229 271.0031  89.0786 15.52565219  4643"
      },
      "geometry": {
        "type": "Point",
        "coordinates": [
          -21.12778627768061,
          21.386240527214653
        ]
      }
    },
    {
      "type": "Feature",
      "properties": {
        "norad_id": 66848,
        "name": "STARLINK-36091",
        "group": "last-30-days",
        "lat": -42.8810769467146,
        "lon": -41.82837351314494,
        "alt_km": 393.243803533378,
        "timestamp": "2025-12-24T03:53:28.362527+00:00",
        "meta_object_name": "STARLINK-36091",
        "meta_object_id": "2025-281A",
        "meta_epoch": "2025-12-23T20:00:01.000224",
        "meta_mean_motion": 15.60416072,
        "meta_eccentricity": 8.83e-05,
        "meta_inclination": 43.0004,
        "meta_ra_of_asc_node": 54.882,
        "meta_arg_of_pericenter": 286.6983,
        "meta_mean_anomaly": 291.4809,
        "meta_ephemeris_type": 0,
        "meta_classification_type": "U",
        "meta_norad_cat_id": 66848,
        "meta_element_set_no": 999,
        "meta_rev_at_epoch": 317,
        "meta_bstar": -0.02689,
        "meta_mean_motion_dot": -0.01993215,
        "meta_mean_motion_ddot": 0,
        "tle_line1": "1 66848U 25281A   25357.83334491 -.01993215  00000+0 -26890-1 0  9994",
        "tle_line2": "2 66848  43.0004  54.8820 0000883 286.6983 291.4809 15.60416072  3179"
      },
      "geometry": {
        "type": "Point",
        "coordinates": [
          -41.82837351314494,
          -42.8810769467146
        ]
      }
    }
  ]
}